     2              NAVIGATION DATA                         RINEX VERSION / TYPE
CCRINEXN V1.6.0 UX  CDDIS               19-MAY-21 15:31     PGM / RUN BY / DATE 
IGS BROADCAST EPHEMERIS FILE                                COMMENT             
    0.7451D-08  0.2235D-07 -0.5960D-07 -0.1192D-06          ION ALPHA           
    0.8602D+05  0.8192D+05 -0.1311D+06 -0.5243D+06          ION BETA            
   -0.931322574615D-09-0.355271367880D-14   319488     2158 DELTA-UTC: A0,A1,T,W
    18                                                      LEAP SECONDS        
                                                            END OF HEADER       
 8 21  5 18 18  0  0.0-0.216937623918D-04-0.147792889038D-11 0.000000000000D+00
    0.380000000000D+02 0.802500000000D+02 0.438911139554D-08 0.296536171661D+01
    0.415742397308D-05 0.634711433668D-02 0.687688589096D-05 0.515360348701D+04
    0.237600000000D+06-0.108033418655D-06 0.189697534871D+01-0.149011611938D-07
    0.967244836190D+00 0.250937500000D+03 0.491075091134D-01-0.793354474970D-08
    0.600024993449D-10 0.100000000000D+01 0.215800000000D+04 0.000000000000D+00
    0.200000000000D+01 0.000000000000D+00 0.512227416039D-08 0.380000000000D+02
    0.230418000000D+06 0.400000000000D+01 0.000000000000D+00 0.000000000000D+00
 9 21  5 18 18  0  0.0-0.346241984516D-03-0.227373675443D-11 0.000000000000D+00
    0.390000000000D+02-0.275000000000D+02 0.449947313540D-08-0.290444806654D+01
   -0.133365392685D-05 0.185845699161D-02 0.943429768086D-05 0.515378417206D+04
    0.237600000000D+06 0.186264514923D-07-0.124428444567D+01-0.223517417908D-07
    0.952980407688D+00 0.194531250000D+03 0.183222452010D+01-0.784925552443D-08
    0.250010413937D-09 0.100000000000D+01 0.215800000000D+04 0.000000000000D+00
    0.200000000000D+01 0.000000000000D+00 0.139698386192D-08 0.390000000000D+02
    0.230418000000D+06 0.400000000000D+01 0.000000000000D+00 0.000000000000D+00
10 21  5 18 18  0  0.0-0.124537386000D-03-0.761701812735D-11 0.000000000000D+00
    0.580000000000D+02-0.803125000000D+02 0.417660254369D-08-0.130924536979D+01
   -0.428967177868D-05 0.661161309108D-02 0.779889523983D-05 0.515367448235D+04
    0.237600000000D+06 0.163912773132D-06-0.227716945201D+01-0.968575477600D-07
    0.969082869871D+00 0.235437500000D+03-0.256096225123D+01-0.783532637279D-08
   -0.957182727646D-10 0.100000000000D+01 0.215800000000D+04 0.000000000000D+00
    0.200000000000D+01 0.000000000000D+00 0.232830643654D-08 0.580000000000D+02
    0.230418000000D+06 0.400000000000D+01 0.000000000000D+00 0.000000000000D+00
11 21  5 18 18  0  0.0-0.124537386000D-03-0.761701812735D-11 0.000000000000D+00
    0.580000000000D+02-0.803125000000D+02 0.417660254369D-08-0.130924536979D+01
   -0.428967177868D-05 0.661161309108D-02 0.779889523983D-05 0.515367448235D+04
    0.237600000000D+06 0.163912773132D-06-0.227716945201D+01-0.968575477600D-07
    0.969082869871D+00 0.235437500000D+03-0.256096225123D+01-0.783532637279D-08
   -0.957182727646D-10 0.100000000000D+01 0.215800000000D+04 0.000000000000D+00
    0.200000000000D+01 0.000000000000D+00 0.232830643654D-08 0.580000000000D+02
    0.233550000000D+06 0.400000000000D+01 0.000000000000D+00 0.000000000000D+00
12 21  5 18 18  0  0.0-0.428357161582D-04-0.511590769747D-11 0.000000000000D+00
    0.870000000000D+02 0.411875000000D+02 0.434553815196D-08-0.621405340758D+00
    0.226870179176D-05 0.844020128716D-02 0.867247581482D-05 0.515374161911D+04
    0.237600000000D+06-0.670552253723D-07 0.938399602670D+00 0.134110450745D-06
    0.973777006795D+00 0.227062500000D+03 0.121571656679D+01-0.798426114795D-08
   -0.168578450541D-09 0.100000000000D+01 0.215800000000D+04 0.000000000000D+00
    0.200000000000D+01 0.000000000000D+00-0.125728547573D-07 0.870000000000D+02
    0.235999000000D+06 0.400000000000D+01 0.000000000000D+00 0.000000000000D+00
13 21  5 18 18  0  0.0 0.133646186441D-03 0.477484718431D-11 0.000000000000D+00
    0.330000000000D+02-0.828125000000D+01 0.420874673977D-08 0.235894786879D+01
   -0.400468707085D-06 0.495652947575D-02 0.877305865288D-05 0.515368027687D+04
    0.237600000000D+06 0.521540641785D-07-0.109574592766D+01-0.132247805595D-06
    0.967835717580D+00 0.214406250000D+03 0.971319477046D+00-0.774782272792D-08
    0.324656380384D-09 0.100000000000D+01 0.215800000000D+04 0.000000000000D+00
    0.200000000000D+01 0.000000000000D+00-0.111758708954D-07 0.330000000000D+02
    0.230470000000D+06 0.400000000000D+01 0.000000000000D+00 0.000000000000D+00
14 21  5 18 18  0  0.0 0.840197317302D-04-0.545696821064D-11 0.000000000000D+00
    0.208000000000D+03 0.330625000000D+02 0.462947855065D-08-0.250267064628D+00
    0.172853469849D-05 0.708513427526D-03 0.825896859169D-05 0.515375082397D+04
    0.237600000000D+06-0.167638063431D-07 0.911391874718D+00-0.149011611938D-07
    0.957277848042D+00 0.217187500000D+03 0.267516668903D+01-0.803140596887D-08
   -0.246438836595D-09 0.100000000000D+01 0.215800000000D+04 0.000000000000D+00
    0.200000000000D+01 0.000000000000D+00-0.791624188423D-08 0.464000000000D+03
    0.230418000000D+06 0.400000000000D+01 0.000000000000D+00 0.000000000000D+00
15 21  5 18 18  0  0.0-0.148515217006D-03 0.261479726760D-11 0.000000000000D+00
    0.117000000000D+03-0.274062500000D+02 0.508556897722D-08 0.201889981587D+01
   -0.158138573170D-05 0.131521393778D-01 0.885315239429D-05 0.515361689377D+04
    0.237600000000D+06-0.122934579849D-06-0.134314946912D+01-0.312924385071D-06
    0.928623104011D+00 0.194187500000D+03 0.982399479602D+00-0.820712757409D-08
    0.259653672761D-09 0.100000000000D+01 0.215800000000D+04 0.000000000000D+00
    0.282842707634D+01 0.000000000000D+00-0.107102096081D-07 0.117000000000D+03
    0.230472000000D+06 0.400000000000D+01 0.000000000000D+00 0.000000000000D+00
16 21  5 18 18  0  0.0-0.327224843204D-03-0.602540239925D-11 0.000000000000D+00
    0.730000000000D+02 0.493437500000D+02 0.422981904608D-08-0.244584988550D+01
    0.218674540520D-05 0.122152580880D-01 0.841356813908D-05 0.515369839478D+04
    0.237600000000D+06 0.176951289177D-06 0.957150445432D+00-0.238418579102D-06
    0.973845031023D+00 0.223843750000D+03 0.678985019549D+00-0.771067832356D-08
   -0.143220251413D-09 0.100000000000D+01 0.215800000000D+04 0.000000000000D+00
    0.200000000000D+01 0.000000000000D+00-0.102445483208D-07 0.730000000000D+02
    0.230418000000D+06 0.400000000000D+01 0.000000000000D+00 0.000000000000D+00
17 21  5 18 18  0  0.0 0.444435980171D-03 0.602540239925D-11 0.000000000000D+00
    0.640000000000D+02 0.741250000000D+02 0.402445334892D-08 0.292711279009D+01
    0.393204391003D-05 0.133379481267D-01 0.667944550514D-05 0.515360268402D+04
    0.237600000000D+06 0.271946191788D-06 0.197484830525D+01-0.111758708954D-06
    0.982036895356D+00 0.256656250000D+03-0.156756853849D+01-0.770889253489D-08
   -0.535736601294D-11 0.100000000000D+01 0.215800000000D+04 0.000000000000D+00
    0.200000000000D+01 0.000000000000D+00-0.111758708954D-07 0.640000000000D+02
    0.230418000000D+06 0.400000000000D+01 0.000000000000D+00 0.000000000000D+00
18 21  5 18 18  0  0.0 0.350051559508D-03-0.102318153950D-11 0.000000000000D+00
    0.580000000000D+02-0.285312500000D+02 0.450268755501D-08 0.101142963182D+01
   -0.151246786118D-05 0.139226054307D-02 0.320374965668D-05 0.515366598892D+04
    0.237600000000D+06 0.130385160446D-07 0.298351517824D+01-0.763684511185D-07
    0.968260314923D+00 0.316718750000D+03 0.291367776445D+01-0.824962934446D-08
   -0.128219626576D-09 0.100000000000D+01 0.215800000000D+04 0.000000000000D+00
    0.200000000000D+01 0.000000000000D+00-0.838190317154D-08 0.826000000000D+03
    0.230418000000D+06 0.400000000000D+01 0.000000000000D+00 0.000000000000D+00
19 21  5 18 18  0  0.0 0.171829015017D-05 0.500222085975D-11 0.000000000000D+00
    0.450000000000D+02 0.604687500000D+02 0.419517474587D-08-0.878374858193D+00
    0.325590372086D-05 0.927689520177D-02 0.665523111820D-05 0.515363344765D+04
    0.237600000000D+06-0.132247805595D-06 0.202003158197D+01-0.558793544769D-07
    0.980573020528D+00 0.264250000000D+03 0.183533649649D+01-0.808497962900D-08
    0.903609067516D-10 0.100000000000D+01 0.215800000000D+04 0.000000000000D+00
    0.200000000000D+01 0.000000000000D+00-0.153668224812D-07 0.450000000000D+02
    0.230418000000D+06 0.400000000000D+01 0.000000000000D+00 0.000000000000D+00
20 21  5 18 18  0  0.0 0.522063113749D-03-0.341060513165D-12 0.000000000000D+00
    0.340000000000D+02-0.759687500000D+02 0.498735060031D-08 0.957902547709D+00
   -0.396370887756D-05 0.605187704787D-02 0.617094337940D-05 0.515172245216D+04
    0.237600000000D+06 0.949949026108D-07-0.241985399215D+01 0.104308128357D-06
    0.938141505885D+00 0.248062500000D+03 0.303239345833D+01-0.836892002768D-08
   -0.114647632677D-09 0.100000000000D+01 0.215800000000D+04 0.000000000000D+00
    0.200000000000D+01 0.000000000000D+00-0.838190317154D-08 0.340000000000D+02
    0.233886000000D+06 0.400000000000D+01 0.000000000000D+00 0.000000000000D+00
21 21  5 18 18  0  0.0 0.119026284665D-03 0.261479726760D-11 0.000000000000D+00
    0.230000000000D+02-0.265625000000D+01 0.474198323692D-08 0.308586901115D+01
    0.521540641785D-07 0.240802438930D-01 0.251829624176D-05 0.515369149590D+04
    0.237600000000D+06 0.271946191788D-06 0.288817689040D+01 0.363215804100D-06
    0.957350108880D+00 0.325531250000D+03-0.113840008380D+01-0.806962184643D-08
    0.107147320259D-11 0.100000000000D+01 0.215800000000D+04 0.000000000000D+00
    0.200000000000D+01 0.000000000000D+00-0.102445483208D-07 0.230000000000D+02
    0.230418000000D+06 0.400000000000D+01 0.000000000000D+00 0.000000000000D+00
